{
  "type": "FeatureCollection",
  "features": [
    {
      "type": "Feature",
      "properties": {
        "leg": 0,
        "polylineMetres": 472.35,
        "providerKm": 0.476,
        "providerSeconds": 405.983
      },
      "geometry": {
        "type": "LineString",
        "coordinates": [
          [
            -0.104959,
            51.520286
          ],
          [
            -0.104963,
            51.520268
          ],
          [
            -0.104853,
            51.520258
          ],
          [
            -0.10468,
            51.520312
          ],
          [
            -0.104714,
            51.520355
          ],
          [
            -0.104684,
            51.520364
          ],
          [
            -0.104666,
            51.52037
          ],
          [
            -0.104633,
            51.520341
          ],
          [
            -0.104625,
            51.520343
          ],
          [
            -0.104619,
            51.520344
          ],
          [
            -0.104566,
            51.520285
          ],
          [
            -0.104472,
            51.520204
          ],
          [
            -0.104408,
            51.52016
          ],
          [
            -0.104388,
            51.520172
          ],
          [
            -0.104331,
            51.520159
          ],
          [
            -0.104184,
            51.520141
          ],
          [
            -0.104,
            51.520138
          ],
          [
            -0.103559,
            51.520143
          ],
          [
            -0.103348,
            51.520145
          ],
          [
            -0.103254,
            51.520146
          ],
          [
            -0.103189,
            51.520146
          ],
          [
            -0.103131,
            51.520144
          ],
          [
            -0.102937,
            51.52013
          ],
          [
            -0.102769,
            51.520118
          ],
          [
            -0.102504,
            51.520101
          ],
          [
            -0.102436,
            51.520092
          ],
          [
            -0.102392,
            51.520087
          ],
          [
            -0.10222,
            51.520022
          ],
          [
            -0.102097,
            51.519908
          ],
          [
            -0.102078,
            51.519897
          ],
          [
            -0.102028,
            51.51988
          ],
          [
            -0.101967,
            51.51988
          ],
          [
            -0.10186,
            51.519885
          ],
          [
            -0.101818,
            51.519879
          ],
          [
            -0.101781,
            51.51987
          ],
          [
            -0.101747,
            51.519849
          ],
          [
            -0.101728,
            51.519808
          ],
          [
            -0.101705,
            51.519793
          ],
          [
            -0.101673,
            51.51982
          ],
          [
            -0.101662,
            51.519829
          ],
          [
            -0.101656,
            51.519828
          ],
          [
            -0.10164,
            51.519828
          ],
          [
            -0.101606,
            51.519832
          ],
          [
            -0.101267,
            51.519914
          ],
          [
            -0.100978,
            51.519995
          ],
          [
            -0.100949,
            51.520012
          ],
          [
            -0.100932,
            51.520024
          ],
          [
            -0.100853,
            51.520126
          ],
          [
            -0.10084,
            51.520137
          ],
          [
            -0.100829,
            51.520147
          ],
          [
            -0.10042,
            51.520538
          ],
          [
            -0.100399,
            51.520566
          ],
          [
            -0.100392,
            51.520572
          ],
          [
            -0.100343,
            51.520549
          ],
          [
            -0.100205,
            51.52066
          ],
          [
            -0.100181,
            51.520677
          ],
          [
            -0.099965,
            51.520847
          ],
          [
            -0.099924,
            51.52088
          ],
          [
            -0.099773,
            51.521002
          ],
          [
            -0.099735,
            51.521022
          ],
          [
            -0.099701,
            51.521032
          ]
        ]
      }
    },
    {
      "type": "Feature",
      "properties": {
        "leg": 1,
        "polylineMetres": 229.69,
        "providerKm": 0.232,
        "providerSeconds": 185.522
      },
      "geometry": {
        "type": "LineString",
        "coordinates": [
          [
            -0.099701,
            51.521032
          ],
          [
            -0.099735,
            51.521022
          ],
          [
            -0.099773,
            51.521002
          ],
          [
            -0.099924,
            51.52088
          ],
          [
            -0.099965,
            51.520847
          ],
          [
            -0.100181,
            51.520677
          ],
          [
            -0.100205,
            51.52066
          ],
          [
            -0.100343,
            51.520549
          ],
          [
            -0.100392,
            51.520572
          ],
          [
            -0.100399,
            51.520566
          ],
          [
            -0.10042,
            51.520538
          ],
          [
            -0.100829,
            51.520147
          ],
          [
            -0.10084,
            51.520137
          ],
          [
            -0.100853,
            51.520126
          ],
          [
            -0.100932,
            51.520024
          ],
          [
            -0.100949,
            51.520012
          ],
          [
            -0.100978,
            51.519995
          ],
          [
            -0.101267,
            51.519914
          ],
          [
            -0.101606,
            51.519832
          ],
          [
            -0.10164,
            51.519828
          ],
          [
            -0.101656,
            51.519828
          ],
          [
            -0.101662,
            51.519829
          ],
          [
            -0.101673,
            51.51982
          ],
          [
            -0.101705,
            51.519793
          ],
          [
            -0.101735,
            51.519772
          ],
          [
            -0.101773,
            51.519752
          ],
          [
            -0.101803,
            51.519753
          ],
          [
            -0.101832,
            51.519756
          ],
          [
            -0.101861,
            51.519758
          ],
          [
            -0.101887,
            51.519761
          ],
          [
            -0.101871,
            51.519839
          ]
        ]
      }
    }
  ]
}
