{
  "type": "FeatureCollection",
  "features": [
    {
      "type": "Feature",
      "properties": {
        "leg": 0,
        "polylineMetres": 410.43,
        "providerKm": 0.412,
        "providerSeconds": 355.116
      },
      "geometry": {
        "type": "LineString",
        "coordinates": [
          [
            -0.104959,
            51.520286
          ],
          [
            -0.104963,
            51.520268
          ],
          [
            -0.104853,
            51.520258
          ],
          [
            -0.10468,
            51.520312
          ],
          [
            -0.104714,
            51.520355
          ],
          [
            -0.104684,
            51.520364
          ],
          [
            -0.104666,
            51.52037
          ],
          [
            -0.104633,
            51.520341
          ],
          [
            -0.104625,
            51.520343
          ],
          [
            -0.104619,
            51.520344
          ],
          [
            -0.104566,
            51.520285
          ],
          [
            -0.104472,
            51.520204
          ],
          [
            -0.104408,
            51.52016
          ],
          [
            -0.104388,
            51.520172
          ],
          [
            -0.104331,
            51.520159
          ],
          [
            -0.104184,
            51.520141
          ],
          [
            -0.104,
            51.520138
          ],
          [
            -0.103559,
            51.520143
          ],
          [
            -0.103348,
            51.520145
          ],
          [
            -0.103254,
            51.520146
          ],
          [
            -0.103189,
            51.520146
          ],
          [
            -0.103131,
            51.520144
          ],
          [
            -0.102937,
            51.52013
          ],
          [
            -0.102769,
            51.520118
          ],
          [
            -0.102504,
            51.520101
          ],
          [
            -0.102436,
            51.520092
          ],
          [
            -0.102392,
            51.520087
          ],
          [
            -0.10222,
            51.520022
          ],
          [
            -0.102097,
            51.519908
          ],
          [
            -0.102078,
            51.519897
          ],
          [
            -0.102028,
            51.51988
          ],
          [
            -0.101967,
            51.51988
          ],
          [
            -0.10186,
            51.519885
          ],
          [
            -0.101818,
            51.519879
          ],
          [
            -0.101781,
            51.51987
          ],
          [
            -0.101747,
            51.519849
          ],
          [
            -0.101728,
            51.519808
          ],
          [
            -0.101705,
            51.519793
          ],
          [
            -0.101673,
            51.51982
          ],
          [
            -0.101662,
            51.519829
          ],
          [
            -0.101656,
            51.519828
          ],
          [
            -0.10164,
            51.519828
          ],
          [
            -0.101606,
            51.519832
          ],
          [
            -0.101267,
            51.519914
          ],
          [
            -0.100978,
            51.519995
          ],
          [
            -0.100949,
            51.520012
          ],
          [
            -0.100932,
            51.520024
          ],
          [
            -0.100853,
            51.520126
          ],
          [
            -0.10084,
            51.520137
          ],
          [
            -0.100829,
            51.520147
          ],
          [
            -0.10042,
            51.520538
          ],
          [
            -0.100399,
            51.520566
          ],
          [
            -0.100392,
            51.520572
          ],
          [
            -0.100385,
            51.520579
          ],
          [
            -0.100363,
            51.520583
          ],
          [
            -0.100342,
            51.520588
          ],
          [
            -0.100273,
            51.520649
          ]
        ]
      }
    },
    {
      "type": "Feature",
      "properties": {
        "leg": 1,
        "polylineMetres": 167.77,
        "providerKm": 0.168,
        "providerSeconds": 135.042
      },
      "geometry": {
        "type": "LineString",
        "coordinates": [
          [
            -0.100273,
            51.520649
          ],
          [
            -0.100342,
            51.520588
          ],
          [
            -0.100363,
            51.520583
          ],
          [
            -0.100385,
            51.520579
          ],
          [
            -0.100392,
            51.520572
          ],
          [
            -0.100399,
            51.520566
          ],
          [
            -0.10042,
            51.520538
          ],
          [
            -0.100829,
            51.520147
          ],
          [
            -0.10084,
            51.520137
          ],
          [
            -0.100853,
            51.520126
          ],
          [
            -0.100932,
            51.520024
          ],
          [
            -0.100949,
            51.520012
          ],
          [
            -0.100978,
            51.519995
          ],
          [
            -0.101267,
            51.519914
          ],
          [
            -0.101606,
            51.519832
          ],
          [
            -0.10164,
            51.519828
          ],
          [
            -0.101656,
            51.519828
          ],
          [
            -0.101662,
            51.519829
          ],
          [
            -0.101673,
            51.51982
          ],
          [
            -0.101705,
            51.519793
          ],
          [
            -0.101735,
            51.519772
          ],
          [
            -0.101773,
            51.519752
          ],
          [
            -0.101803,
            51.519753
          ],
          [
            -0.101832,
            51.519756
          ],
          [
            -0.101861,
            51.519758
          ],
          [
            -0.101887,
            51.519761
          ],
          [
            -0.101871,
            51.519839
          ]
        ]
      }
    },
    {
      "type": "Feature",
      "properties": {
        "leg": 2,
        "polylineMetres": 325.68,
        "providerKm": 0.326,
        "providerSeconds": 272.656
      },
      "geometry": {
        "type": "LineString",
        "coordinates": [
          [
            -0.101871,
            51.519839
          ],
          [
            -0.101866,
            51.519858
          ],
          [
            -0.10186,
            51.519885
          ],
          [
            -0.101848,
            51.519932
          ],
          [
            -0.101848,
            51.519936
          ],
          [
            -0.101847,
            51.519939
          ],
          [
            -0.101839,
            51.519991
          ],
          [
            -0.101837,
            51.520009
          ],
          [
            -0.101831,
            51.520238
          ],
          [
            -0.101858,
            51.520631
          ],
          [
            -0.10186,
            51.520654
          ],
          [
            -0.101868,
            51.52067
          ],
          [
            -0.101886,
            51.520697
          ],
          [
            -0.102055,
            51.520908
          ],
          [
            -0.10217,
            51.521052
          ],
          [
            -0.102176,
            51.521059
          ],
          [
            -0.102186,
            51.521071
          ],
          [
            -0.102249,
            51.52115
          ],
          [
            -0.102332,
            51.521291
          ],
          [
            -0.102356,
            51.521303
          ],
          [
            -0.102348,
            51.521319
          ],
          [
            -0.102365,
            51.521338
          ],
          [
            -0.102387,
            51.521364
          ],
          [
            -0.10241,
            51.521372
          ],
          [
            -0.102404,
            51.521397
          ],
          [
            -0.102492,
            51.521538
          ],
          [
            -0.102532,
            51.521581
          ],
          [
            -0.102616,
            51.521693
          ],
          [
            -0.102641,
            51.521714
          ],
          [
            -0.102658,
            51.521723
          ],
          [
            -0.102694,
            51.521726
          ],
          [
            -0.102726,
            51.521722
          ],
          [
            -0.102995,
            51.521655
          ],
          [
            -0.103024,
            51.521648
          ],
          [
            -0.103107,
            51.521623
          ],
          [
            -0.103149,
            51.521615
          ],
          [
            -0.103363,
            51.521569
          ],
          [
            -0.103497,
            51.521524
          ],
          [
            -0.103549,
            51.521501
          ],
          [
            -0.103697,
            51.52144
          ],
          [
            -0.103742,
            51.52142
          ],
          [
            -0.103756,
            51.521423
          ],
          [
            -0.103778,
            51.521441
          ],
          [
            -0.103802,
            51.521464
          ],
          [
            -0.103801,
            51.521471
          ],
          [
            -0.103805,
            51.521471
          ],
          [
            -0.103823,
            51.521474
          ],
          [
            -0.103906,
            51.521546
          ]
        ]
      }
    },
    {
      "type": "Feature",
      "properties": {
        "leg": 3,
        "polylineMetres": 118.93,
        "providerKm": 0.119,
        "providerSeconds": 95.904
      },
      "geometry": {
        "type": "LineString",
        "coordinates": [
          [
            -0.103906,
            51.521546
          ],
          [
            -0.103823,
            51.521474
          ],
          [
            -0.103805,
            51.521471
          ],
          [
            -0.103801,
            51.521471
          ],
          [
            -0.103776,
            51.521472
          ],
          [
            -0.103528,
            51.521552
          ],
          [
            -0.102979,
            51.521727
          ],
          [
            -0.102679,
            51.521813
          ],
          [
            -0.102673,
            51.52181
          ],
          [
            -0.102652,
            51.521783
          ],
          [
            -0.10262,
            51.521793
          ],
          [
            -0.102701,
            51.521914
          ]
        ]
      }
    }
  ]
}
