{
  "type": "FeatureCollection",
  "features": [
    {
      "type": "Feature",
      "properties": {
        "leg": 0,
        "polylineMetres": 255.01,
        "providerKm": 0.256,
        "providerSeconds": 217.736
      },
      "geometry": {
        "type": "LineString",
        "coordinates": [
          [
            -0.104959,
            51.520286
          ],
          [
            -0.104963,
            51.520268
          ],
          [
            -0.104853,
            51.520258
          ],
          [
            -0.10468,
            51.520312
          ],
          [
            -0.104714,
            51.520355
          ],
          [
            -0.104684,
            51.520364
          ],
          [
            -0.104666,
            51.52037
          ],
          [
            -0.104633,
            51.520341
          ],
          [
            -0.104625,
            51.520343
          ],
          [
            -0.104619,
            51.520344
          ],
          [
            -0.104566,
            51.520285
          ],
          [
            -0.104472,
            51.520204
          ],
          [
            -0.104408,
            51.52016
          ],
          [
            -0.104388,
            51.520172
          ],
          [
            -0.104331,
            51.520159
          ],
          [
            -0.104184,
            51.520141
          ],
          [
            -0.104,
            51.520138
          ],
          [
            -0.103559,
            51.520143
          ],
          [
            -0.103348,
            51.520145
          ],
          [
            -0.103254,
            51.520146
          ],
          [
            -0.103189,
            51.520146
          ],
          [
            -0.103131,
            51.520144
          ],
          [
            -0.102937,
            51.52013
          ],
          [
            -0.102769,
            51.520118
          ],
          [
            -0.102504,
            51.520101
          ],
          [
            -0.102436,
            51.520092
          ],
          [
            -0.102392,
            51.520087
          ],
          [
            -0.10222,
            51.520022
          ],
          [
            -0.102097,
            51.519908
          ],
          [
            -0.102078,
            51.519897
          ],
          [
            -0.102028,
            51.51988
          ],
          [
            -0.101967,
            51.51988
          ],
          [
            -0.10186,
            51.519885
          ],
          [
            -0.101866,
            51.519858
          ],
          [
            -0.101871,
            51.519839
          ]
        ]
      }
    },
    {
      "type": "Feature",
      "properties": {
        "leg": 1,
        "polylineMetres": 325.68,
        "providerKm": 0.326,
        "providerSeconds": 272.656
      },
      "geometry": {
        "type": "LineString",
        "coordinates": [
          [
            -0.101871,
            51.519839
          ],
          [
            -0.101866,
            51.519858
          ],
          [
            -0.10186,
            51.519885
          ],
          [
            -0.101848,
            51.519932
          ],
          [
            -0.101848,
            51.519936
          ],
          [
            -0.101847,
            51.519939
          ],
          [
            -0.101839,
            51.519991
          ],
          [
            -0.101837,
            51.520009
          ],
          [
            -0.101831,
            51.520238
          ],
          [
            -0.101858,
            51.520631
          ],
          [
            -0.10186,
            51.520654
          ],
          [
            -0.101868,
            51.52067
          ],
          [
            -0.101886,
            51.520697
          ],
          [
            -0.102055,
            51.520908
          ],
          [
            -0.10217,
            51.521052
          ],
          [
            -0.102176,
            51.521059
          ],
          [
            -0.102186,
            51.521071
          ],
          [
            -0.102249,
            51.52115
          ],
          [
            -0.102332,
            51.521291
          ],
          [
            -0.102356,
            51.521303
          ],
          [
            -0.102348,
            51.521319
          ],
          [
            -0.102365,
            51.521338
          ],
          [
            -0.102387,
            51.521364
          ],
          [
            -0.10241,
            51.521372
          ],
          [
            -0.102404,
            51.521397
          ],
          [
            -0.102492,
            51.521538
          ],
          [
            -0.102532,
            51.521581
          ],
          [
            -0.102616,
            51.521693
          ],
          [
            -0.102641,
            51.521714
          ],
          [
            -0.102658,
            51.521723
          ],
          [
            -0.102694,
            51.521726
          ],
          [
            -0.102726,
            51.521722
          ],
          [
            -0.102995,
            51.521655
          ],
          [
            -0.103024,
            51.521648
          ],
          [
            -0.103107,
            51.521623
          ],
          [
            -0.103149,
            51.521615
          ],
          [
            -0.103363,
            51.521569
          ],
          [
            -0.103497,
            51.521524
          ],
          [
            -0.103549,
            51.521501
          ],
          [
            -0.103697,
            51.52144
          ],
          [
            -0.103742,
            51.52142
          ],
          [
            -0.103756,
            51.521423
          ],
          [
            -0.103778,
            51.521441
          ],
          [
            -0.103802,
            51.521464
          ],
          [
            -0.103801,
            51.521471
          ],
          [
            -0.103805,
            51.521471
          ],
          [
            -0.103823,
            51.521474
          ],
          [
            -0.103906,
            51.521546
          ]
        ]
      }
    },
    {
      "type": "Feature",
      "properties": {
        "leg": 2,
        "polylineMetres": 118.93,
        "providerKm": 0.119,
        "providerSeconds": 95.904
      },
      "geometry": {
        "type": "LineString",
        "coordinates": [
          [
            -0.103906,
            51.521546
          ],
          [
            -0.103823,
            51.521474
          ],
          [
            -0.103805,
            51.521471
          ],
          [
            -0.103801,
            51.521471
          ],
          [
            -0.103776,
            51.521472
          ],
          [
            -0.103528,
            51.521552
          ],
          [
            -0.102979,
            51.521727
          ],
          [
            -0.102679,
            51.521813
          ],
          [
            -0.102673,
            51.52181
          ],
          [
            -0.102652,
            51.521783
          ],
          [
            -0.10262,
            51.521793
          ],
          [
            -0.102701,
            51.521914
          ]
        ]
      }
    },
    {
      "type": "Feature",
      "properties": {
        "leg": 3,
        "polylineMetres": 359.85,
        "providerKm": 0.364,
        "providerSeconds": 296.235
      },
      "geometry": {
        "type": "LineString",
        "coordinates": [
          [
            -0.102701,
            51.521914
          ],
          [
            -0.102713,
            51.521936
          ],
          [
            -0.102736,
            51.521972
          ],
          [
            -0.10278,
            51.522038
          ],
          [
            -0.102808,
            51.522075
          ],
          [
            -0.102848,
            51.522112
          ],
          [
            -0.10292,
            51.522178
          ],
          [
            -0.103038,
            51.52233
          ],
          [
            -0.103141,
            51.522484
          ],
          [
            -0.103159,
            51.522508
          ],
          [
            -0.103213,
            51.522583
          ],
          [
            -0.103278,
            51.522662
          ],
          [
            -0.10338,
            51.522659
          ],
          [
            -0.103427,
            51.522654
          ],
          [
            -0.103455,
            51.522651
          ],
          [
            -0.10354,
            51.522644
          ],
          [
            -0.104241,
            51.522552
          ],
          [
            -0.104442,
            51.522526
          ],
          [
            -0.105426,
            51.522409
          ],
          [
            -0.105446,
            51.522406
          ],
          [
            -0.105482,
            51.5224
          ],
          [
            -0.105507,
            51.522397
          ],
          [
            -0.105538,
            51.522455
          ],
          [
            -0.105541,
            51.522459
          ],
          [
            -0.105568,
            51.522505
          ],
          [
            -0.105578,
            51.522526
          ],
          [
            -0.105581,
            51.522567
          ],
          [
            -0.105581,
            51.522674
          ],
          [
            -0.105713,
            51.522798
          ],
          [
            -0.105757,
            51.522835
          ],
          [
            -0.105715,
            51.522853
          ],
          [
            -0.105365,
            51.52299
          ],
          [
            -0.105388,
            51.523012
          ],
          [
            -0.10541,
            51.523034
          ],
          [
            -0.105635,
            51.522941
          ],
          [
            -0.105639,
            51.522939
          ]
        ]
      }
    },
    {
      "type": "Feature",
      "properties": {
        "leg": 4,
        "polylineMetres": 198.61,
        "providerKm": 0.2,
        "providerSeconds": 169.257
      },
      "geometry": {
        "type": "LineString",
        "coordinates": [
          [
            -0.105639,
            51.522939
          ],
          [
            -0.105635,
            51.522941
          ],
          [
            -0.10541,
            51.523034
          ],
          [
            -0.105391,
            51.523043
          ],
          [
            -0.105311,
            51.52308
          ],
          [
            -0.105269,
            51.523091
          ],
          [
            -0.10525,
            51.523096
          ],
          [
            -0.10524,
            51.523099
          ],
          [
            -0.105096,
            51.523136
          ],
          [
            -0.10474,
            51.523269
          ],
          [
            -0.104658,
            51.523299
          ],
          [
            -0.10465,
            51.523302
          ],
          [
            -0.104606,
            51.523316
          ],
          [
            -0.104547,
            51.523334
          ],
          [
            -0.104541,
            51.523343
          ],
          [
            -0.104551,
            51.52335
          ],
          [
            -0.104562,
            51.523367
          ],
          [
            -0.104587,
            51.52343
          ],
          [
            -0.104606,
            51.523541
          ],
          [
            -0.104604,
            51.523574
          ],
          [
            -0.104603,
            51.523586
          ],
          [
            -0.104616,
            51.523593
          ],
          [
            -0.104624,
            51.523617
          ],
          [
            -0.104629,
            51.523632
          ],
          [
            -0.104626,
            51.523647
          ],
          [
            -0.104613,
            51.523661
          ],
          [
            -0.104595,
            51.523657
          ],
          [
            -0.10457,
            51.523665
          ],
          [
            -0.104362,
            51.52377
          ],
          [
            -0.103953,
            51.523984
          ],
          [
            -0.103939,
            51.523991
          ],
          [
            -0.103939,
            51.523998
          ],
          [
            -0.104042,
            51.524088
          ]
        ]
      }
    },
    {
      "type": "Feature",
      "properties": {
        "leg": 5,
        "polylineMetres": 559.68,
        "providerKm": 0.56,
        "providerSeconds": 463.254
      },
      "geometry": {
        "type": "LineString",
        "coordinates": [
          [
            -0.104042,
            51.524088
          ],
          [
            -0.104096,
            51.524136
          ],
          [
            -0.104348,
            51.524349
          ],
          [
            -0.104385,
            51.524383
          ],
          [
            -0.10442,
            51.524395
          ],
          [
            -0.104454,
            51.524391
          ],
          [
            -0.10444,
            51.52441
          ],
          [
            -0.10442,
            51.524432
          ],
          [
            -0.104428,
            51.524436
          ],
          [
            -0.104492,
            51.524446
          ],
          [
            -0.104553,
            51.524451
          ],
          [
            -0.104526,
            51.524574
          ],
          [
            -0.104737,
            51.524753
          ],
          [
            -0.105637,
            51.525433
          ],
          [
            -0.105654,
            51.525428
          ],
          [
            -0.105664,
            51.525425
          ],
          [
            -0.10571,
            51.525415
          ],
          [
            -0.105717,
            51.525421
          ],
          [
            -0.10573,
            51.525432
          ],
          [
            -0.10575,
            51.525448
          ],
          [
            -0.105766,
            51.52546
          ],
          [
            -0.105772,
            51.525465
          ],
          [
            -0.10578,
            51.525471
          ],
          [
            -0.105761,
            51.525483
          ],
          [
            -0.105753,
            51.525489
          ],
          [
            -0.10575,
            51.525496
          ],
          [
            -0.105749,
            51.525515
          ],
          [
            -0.105752,
            51.525546
          ],
          [
            -0.105752,
            51.525562
          ],
          [
            -0.105755,
            51.52561
          ],
          [
            -0.105927,
            51.525694
          ],
          [
            -0.106172,
            51.525821
          ],
          [
            -0.106632,
            51.526048
          ],
          [
            -0.106772,
            51.526117
          ],
          [
            -0.1068,
            51.526124
          ],
          [
            -0.106829,
            51.52613
          ],
          [
            -0.106874,
            51.526138
          ],
          [
            -0.107096,
            51.526162
          ],
          [
            -0.107269,
            51.526183
          ],
          [
            -0.107383,
            51.526195
          ],
          [
            -0.107399,
            51.526196
          ],
          [
            -0.107434,
            51.526197
          ],
          [
            -0.107451,
            51.526191
          ],
          [
            -0.107516,
            51.526131
          ],
          [
            -0.107534,
            51.526112
          ],
          [
            -0.107574,
            51.52609
          ],
          [
            -0.107705,
            51.526032
          ],
          [
            -0.107715,
            51.526027
          ],
          [
            -0.107862,
            51.525961
          ],
          [
            -0.107903,
            51.525991
          ],
          [
            -0.107942,
            51.526021
          ],
          [
            -0.108225,
            51.526244
          ],
          [
            -0.10827,
            51.526279
          ],
          [
            -0.108383,
            51.526217
          ],
          [
            -0.10866,
            51.526087
          ],
          [
            -0.109035,
            51.525908
          ],
          [
            -0.109264,
            51.525802
          ],
          [
            -0.109303,
            51.525779
          ],
          [
            -0.109524,
            51.525656
          ]
        ]
      }
    }
  ]
}
