{
  "type": "FeatureCollection",
  "features": [
    {
      "type": "Feature",
      "properties": {
        "leg": 0,
        "polylineMetres": 420.81,
        "providerKm": 0.421,
        "providerSeconds": 348.274
      },
      "geometry": {
        "type": "LineString",
        "coordinates": [
          [
            -0.102701,
            51.521914
          ],
          [
            -0.102713,
            51.521936
          ],
          [
            -0.102736,
            51.521972
          ],
          [
            -0.10278,
            51.522038
          ],
          [
            -0.102808,
            51.522075
          ],
          [
            -0.102848,
            51.522112
          ],
          [
            -0.10292,
            51.522178
          ],
          [
            -0.103609,
            51.521978
          ],
          [
            -0.103701,
            51.521951
          ],
          [
            -0.103753,
            51.52192
          ],
          [
            -0.10376,
            51.521917
          ],
          [
            -0.104007,
            51.521817
          ],
          [
            -0.104125,
            51.521766
          ],
          [
            -0.104145,
            51.521757
          ],
          [
            -0.104171,
            51.52178
          ],
          [
            -0.1044,
            51.521991
          ],
          [
            -0.104522,
            51.522094
          ],
          [
            -0.104613,
            51.522158
          ],
          [
            -0.104682,
            51.522207
          ],
          [
            -0.104761,
            51.522281
          ],
          [
            -0.104795,
            51.522318
          ],
          [
            -0.104811,
            51.522357
          ],
          [
            -0.104833,
            51.522354
          ],
          [
            -0.104927,
            51.522341
          ],
          [
            -0.105014,
            51.52233
          ],
          [
            -0.105042,
            51.522326
          ],
          [
            -0.105963,
            51.522197
          ],
          [
            -0.105967,
            51.522208
          ],
          [
            -0.105983,
            51.522262
          ],
          [
            -0.105996,
            51.52231
          ],
          [
            -0.106004,
            51.522328
          ],
          [
            -0.1061,
            51.522315
          ],
          [
            -0.106149,
            51.522318
          ],
          [
            -0.10617,
            51.522388
          ],
          [
            -0.106317,
            51.522544
          ],
          [
            -0.106326,
            51.522559
          ],
          [
            -0.106337,
            51.522572
          ],
          [
            -0.106348,
            51.522593
          ],
          [
            -0.106355,
            51.522701
          ],
          [
            -0.106338,
            51.522706
          ],
          [
            -0.105895,
            51.522842
          ],
          [
            -0.105639,
            51.522939
          ]
        ]
      }
    }
  ]
}
