{
  "type": "FeatureCollection",
  "features": [
    {
      "type": "Feature",
      "properties": {
        "leg": 0,
        "polylineMetres": 255.01,
        "providerKm": 0.256,
        "providerSeconds": 217.736
      },
      "geometry": {
        "type": "LineString",
        "coordinates": [
          [
            -0.104959,
            51.520286
          ],
          [
            -0.104963,
            51.520268
          ],
          [
            -0.104853,
            51.520258
          ],
          [
            -0.10468,
            51.520312
          ],
          [
            -0.104714,
            51.520355
          ],
          [
            -0.104684,
            51.520364
          ],
          [
            -0.104666,
            51.52037
          ],
          [
            -0.104633,
            51.520341
          ],
          [
            -0.104625,
            51.520343
          ],
          [
            -0.104619,
            51.520344
          ],
          [
            -0.104566,
            51.520285
          ],
          [
            -0.104472,
            51.520204
          ],
          [
            -0.104408,
            51.52016
          ],
          [
            -0.104388,
            51.520172
          ],
          [
            -0.104331,
            51.520159
          ],
          [
            -0.104184,
            51.520141
          ],
          [
            -0.104,
            51.520138
          ],
          [
            -0.103559,
            51.520143
          ],
          [
            -0.103348,
            51.520145
          ],
          [
            -0.103254,
            51.520146
          ],
          [
            -0.103189,
            51.520146
          ],
          [
            -0.103131,
            51.520144
          ],
          [
            -0.102937,
            51.52013
          ],
          [
            -0.102769,
            51.520118
          ],
          [
            -0.102504,
            51.520101
          ],
          [
            -0.102436,
            51.520092
          ],
          [
            -0.102392,
            51.520087
          ],
          [
            -0.10222,
            51.520022
          ],
          [
            -0.102097,
            51.519908
          ],
          [
            -0.102078,
            51.519897
          ],
          [
            -0.102028,
            51.51988
          ],
          [
            -0.101967,
            51.51988
          ],
          [
            -0.10186,
            51.519885
          ],
          [
            -0.101866,
            51.519858
          ],
          [
            -0.101871,
            51.519839
          ]
        ]
      }
    },
    {
      "type": "Feature",
      "properties": {
        "leg": 1,
        "polylineMetres": 325.68,
        "providerKm": 0.326,
        "providerSeconds": 272.656
      },
      "geometry": {
        "type": "LineString",
        "coordinates": [
          [
            -0.101871,
            51.519839
          ],
          [
            -0.101866,
            51.519858
          ],
          [
            -0.10186,
            51.519885
          ],
          [
            -0.101848,
            51.519932
          ],
          [
            -0.101848,
            51.519936
          ],
          [
            -0.101847,
            51.519939
          ],
          [
            -0.101839,
            51.519991
          ],
          [
            -0.101837,
            51.520009
          ],
          [
            -0.101831,
            51.520238
          ],
          [
            -0.101858,
            51.520631
          ],
          [
            -0.10186,
            51.520654
          ],
          [
            -0.101868,
            51.52067
          ],
          [
            -0.101886,
            51.520697
          ],
          [
            -0.102055,
            51.520908
          ],
          [
            -0.10217,
            51.521052
          ],
          [
            -0.102176,
            51.521059
          ],
          [
            -0.102186,
            51.521071
          ],
          [
            -0.102249,
            51.52115
          ],
          [
            -0.102332,
            51.521291
          ],
          [
            -0.102356,
            51.521303
          ],
          [
            -0.102348,
            51.521319
          ],
          [
            -0.102365,
            51.521338
          ],
          [
            -0.102387,
            51.521364
          ],
          [
            -0.10241,
            51.521372
          ],
          [
            -0.102404,
            51.521397
          ],
          [
            -0.102492,
            51.521538
          ],
          [
            -0.102532,
            51.521581
          ],
          [
            -0.102616,
            51.521693
          ],
          [
            -0.102641,
            51.521714
          ],
          [
            -0.102658,
            51.521723
          ],
          [
            -0.102694,
            51.521726
          ],
          [
            -0.102726,
            51.521722
          ],
          [
            -0.102995,
            51.521655
          ],
          [
            -0.103024,
            51.521648
          ],
          [
            -0.103107,
            51.521623
          ],
          [
            -0.103149,
            51.521615
          ],
          [
            -0.103363,
            51.521569
          ],
          [
            -0.103497,
            51.521524
          ],
          [
            -0.103549,
            51.521501
          ],
          [
            -0.103697,
            51.52144
          ],
          [
            -0.103742,
            51.52142
          ],
          [
            -0.103756,
            51.521423
          ],
          [
            -0.103778,
            51.521441
          ],
          [
            -0.103802,
            51.521464
          ],
          [
            -0.103801,
            51.521471
          ],
          [
            -0.103805,
            51.521471
          ],
          [
            -0.103823,
            51.521474
          ],
          [
            -0.103906,
            51.521546
          ]
        ]
      }
    },
    {
      "type": "Feature",
      "properties": {
        "leg": 2,
        "polylineMetres": 118.93,
        "providerKm": 0.119,
        "providerSeconds": 95.904
      },
      "geometry": {
        "type": "LineString",
        "coordinates": [
          [
            -0.103906,
            51.521546
          ],
          [
            -0.103823,
            51.521474
          ],
          [
            -0.103805,
            51.521471
          ],
          [
            -0.103801,
            51.521471
          ],
          [
            -0.103776,
            51.521472
          ],
          [
            -0.103528,
            51.521552
          ],
          [
            -0.102979,
            51.521727
          ],
          [
            -0.102679,
            51.521813
          ],
          [
            -0.102673,
            51.52181
          ],
          [
            -0.102652,
            51.521783
          ],
          [
            -0.10262,
            51.521793
          ],
          [
            -0.102701,
            51.521914
          ]
        ]
      }
    },
    {
      "type": "Feature",
      "properties": {
        "leg": 3,
        "polylineMetres": 359.85,
        "providerKm": 0.364,
        "providerSeconds": 296.235
      },
      "geometry": {
        "type": "LineString",
        "coordinates": [
          [
            -0.102701,
            51.521914
          ],
          [
            -0.102713,
            51.521936
          ],
          [
            -0.102736,
            51.521972
          ],
          [
            -0.10278,
            51.522038
          ],
          [
            -0.102808,
            51.522075
          ],
          [
            -0.102848,
            51.522112
          ],
          [
            -0.10292,
            51.522178
          ],
          [
            -0.103038,
            51.52233
          ],
          [
            -0.103141,
            51.522484
          ],
          [
            -0.103159,
            51.522508
          ],
          [
            -0.103213,
            51.522583
          ],
          [
            -0.103278,
            51.522662
          ],
          [
            -0.10338,
            51.522659
          ],
          [
            -0.103427,
            51.522654
          ],
          [
            -0.103455,
            51.522651
          ],
          [
            -0.10354,
            51.522644
          ],
          [
            -0.104241,
            51.522552
          ],
          [
            -0.104442,
            51.522526
          ],
          [
            -0.105426,
            51.522409
          ],
          [
            -0.105446,
            51.522406
          ],
          [
            -0.105482,
            51.5224
          ],
          [
            -0.105507,
            51.522397
          ],
          [
            -0.105538,
            51.522455
          ],
          [
            -0.105541,
            51.522459
          ],
          [
            -0.105568,
            51.522505
          ],
          [
            -0.105578,
            51.522526
          ],
          [
            -0.105581,
            51.522567
          ],
          [
            -0.105581,
            51.522674
          ],
          [
            -0.105713,
            51.522798
          ],
          [
            -0.105757,
            51.522835
          ],
          [
            -0.105715,
            51.522853
          ],
          [
            -0.105365,
            51.52299
          ],
          [
            -0.105388,
            51.523012
          ],
          [
            -0.10541,
            51.523034
          ],
          [
            -0.105635,
            51.522941
          ],
          [
            -0.105639,
            51.522939
          ]
        ]
      }
    },
    {
      "type": "Feature",
      "properties": {
        "leg": 4,
        "polylineMetres": 465.33,
        "providerKm": 0.467,
        "providerSeconds": 379.6
      },
      "geometry": {
        "type": "LineString",
        "coordinates": [
          [
            -0.105639,
            51.522939
          ],
          [
            -0.105635,
            51.522941
          ],
          [
            -0.10541,
            51.523034
          ],
          [
            -0.105391,
            51.523043
          ],
          [
            -0.105311,
            51.52308
          ],
          [
            -0.105384,
            51.523159
          ],
          [
            -0.10547,
            51.523239
          ],
          [
            -0.105549,
            51.523287
          ],
          [
            -0.105625,
            51.523326
          ],
          [
            -0.105709,
            51.523349
          ],
          [
            -0.105722,
            51.523351
          ],
          [
            -0.105794,
            51.52336
          ],
          [
            -0.105842,
            51.523362
          ],
          [
            -0.105892,
            51.523358
          ],
          [
            -0.105987,
            51.523339
          ],
          [
            -0.106086,
            51.523312
          ],
          [
            -0.106158,
            51.523285
          ],
          [
            -0.106186,
            51.523282
          ],
          [
            -0.10621,
            51.523289
          ],
          [
            -0.106492,
            51.523491
          ],
          [
            -0.106698,
            51.523642
          ],
          [
            -0.106818,
            51.52372
          ],
          [
            -0.106709,
            51.523797
          ],
          [
            -0.106676,
            51.52382
          ],
          [
            -0.106585,
            51.523887
          ],
          [
            -0.106532,
            51.52394
          ],
          [
            -0.10634,
            51.524124
          ],
          [
            -0.106326,
            51.524146
          ],
          [
            -0.106226,
            51.524136
          ],
          [
            -0.106206,
            51.524144
          ],
          [
            -0.106043,
            51.524217
          ],
          [
            -0.105717,
            51.524361
          ],
          [
            -0.105679,
            51.524358
          ],
          [
            -0.105662,
            51.524349
          ],
          [
            -0.105636,
            51.524336
          ],
          [
            -0.104772,
            51.524736
          ],
          [
            -0.104752,
            51.524724
          ],
          [
            -0.104772,
            51.524736
          ],
          [
            -0.104737,
            51.524753
          ],
          [
            -0.104526,
            51.524574
          ],
          [
            -0.104553,
            51.524451
          ],
          [
            -0.104492,
            51.524446
          ],
          [
            -0.104428,
            51.524436
          ],
          [
            -0.10442,
            51.524432
          ],
          [
            -0.10444,
            51.52441
          ],
          [
            -0.104454,
            51.524391
          ],
          [
            -0.10442,
            51.524395
          ],
          [
            -0.104385,
            51.524383
          ],
          [
            -0.104348,
            51.524349
          ],
          [
            -0.104096,
            51.524136
          ],
          [
            -0.104042,
            51.524088
          ]
        ]
      }
    },
    {
      "type": "Feature",
      "properties": {
        "leg": 5,
        "polylineMetres": 230.8,
        "providerKm": 0.23,
        "providerSeconds": 189.466
      },
      "geometry": {
        "type": "LineString",
        "coordinates": [
          [
            -0.104042,
            51.524088
          ],
          [
            -0.104096,
            51.524136
          ],
          [
            -0.104348,
            51.524349
          ],
          [
            -0.104385,
            51.524383
          ],
          [
            -0.10442,
            51.524395
          ],
          [
            -0.104454,
            51.524391
          ],
          [
            -0.10444,
            51.52441
          ],
          [
            -0.10442,
            51.524432
          ],
          [
            -0.104411,
            51.524443
          ],
          [
            -0.104396,
            51.524453
          ],
          [
            -0.104417,
            51.524471
          ],
          [
            -0.104443,
            51.524525
          ],
          [
            -0.104453,
            51.524625
          ],
          [
            -0.10444,
            51.524978
          ],
          [
            -0.104388,
            51.525272
          ],
          [
            -0.104352,
            51.525353
          ],
          [
            -0.104299,
            51.525416
          ],
          [
            -0.104272,
            51.525448
          ],
          [
            -0.104267,
            51.525454
          ],
          [
            -0.104255,
            51.525468
          ],
          [
            -0.104237,
            51.52547
          ],
          [
            -0.104192,
            51.525475
          ],
          [
            -0.104194,
            51.525487
          ],
          [
            -0.104196,
            51.5255
          ],
          [
            -0.104206,
            51.525531
          ],
          [
            -0.104209,
            51.525548
          ],
          [
            -0.104158,
            51.525702
          ],
          [
            -0.104144,
            51.5257
          ],
          [
            -0.104074,
            51.52569
          ],
          [
            -0.103993,
            51.525679
          ],
          [
            -0.10398,
            51.525677
          ],
          [
            -0.103994,
            51.525636
          ],
          [
            -0.103997,
            51.525511
          ]
        ]
      }
    },
    {
      "type": "Feature",
      "properties": {
        "leg": 6,
        "polylineMetres": 474.03,
        "providerKm": 0.476,
        "providerSeconds": 405.432
      },
      "geometry": {
        "type": "LineString",
        "coordinates": [
          [
            -0.103997,
            51.525511
          ],
          [
            -0.103994,
            51.525636
          ],
          [
            -0.10398,
            51.525677
          ],
          [
            -0.103993,
            51.525679
          ],
          [
            -0.104074,
            51.52569
          ],
          [
            -0.104144,
            51.5257
          ],
          [
            -0.104158,
            51.525702
          ],
          [
            -0.104217,
            51.525732
          ],
          [
            -0.104207,
            51.525744
          ],
          [
            -0.104204,
            51.525793
          ],
          [
            -0.104249,
            51.525786
          ],
          [
            -0.104309,
            51.525776
          ],
          [
            -0.104439,
            51.525757
          ],
          [
            -0.104899,
            51.525686
          ],
          [
            -0.104943,
            51.525704
          ],
          [
            -0.105052,
            51.5257
          ],
          [
            -0.105149,
            51.5257
          ],
          [
            -0.10532,
            51.525706
          ],
          [
            -0.105472,
            51.525724
          ],
          [
            -0.105597,
            51.525738
          ],
          [
            -0.105727,
            51.525764
          ],
          [
            -0.10585,
            51.5258
          ],
          [
            -0.105907,
            51.525793
          ],
          [
            -0.105946,
            51.525812
          ],
          [
            -0.106556,
            51.526088
          ],
          [
            -0.106699,
            51.526155
          ],
          [
            -0.106776,
            51.526183
          ],
          [
            -0.106874,
            51.526212
          ],
          [
            -0.106956,
            51.526228
          ],
          [
            -0.107113,
            51.526234
          ],
          [
            -0.107375,
            51.526235
          ],
          [
            -0.107445,
            51.526237
          ],
          [
            -0.107566,
            51.526247
          ],
          [
            -0.107601,
            51.526261
          ],
          [
            -0.107649,
            51.526304
          ],
          [
            -0.10775,
            51.526415
          ],
          [
            -0.107802,
            51.526395
          ],
          [
            -0.107833,
            51.526383
          ],
          [
            -0.107865,
            51.526413
          ],
          [
            -0.107938,
            51.526425
          ],
          [
            -0.107988,
            51.526425
          ],
          [
            -0.108006,
            51.526424
          ],
          [
            -0.108034,
            51.526406
          ],
          [
            -0.108053,
            51.526396
          ],
          [
            -0.108206,
            51.526315
          ],
          [
            -0.10827,
            51.526279
          ],
          [
            -0.108383,
            51.526217
          ],
          [
            -0.10866,
            51.526087
          ],
          [
            -0.109035,
            51.525908
          ],
          [
            -0.109264,
            51.525802
          ],
          [
            -0.109303,
            51.525779
          ],
          [
            -0.109524,
            51.525656
          ]
        ]
      }
    }
  ]
}
