{
  "type": "FeatureCollection",
  "features": [
    {
      "type": "Feature",
      "properties": {
        "leg": 0,
        "polylineMetres": 473.76,
        "providerKm": 0.474,
        "providerSeconds": 495.328
      },
      "geometry": {
        "type": "LineString",
        "coordinates": [
          [
            -0.103997,
            51.525511
          ],
          [
            -0.103994,
            51.525636
          ],
          [
            -0.10398,
            51.525677
          ],
          [
            -0.103993,
            51.525679
          ],
          [
            -0.104074,
            51.52569
          ],
          [
            -0.104144,
            51.5257
          ],
          [
            -0.104158,
            51.525702
          ],
          [
            -0.104217,
            51.525732
          ],
          [
            -0.105286,
            51.525527
          ],
          [
            -0.105425,
            51.5255
          ],
          [
            -0.105491,
            51.52548
          ],
          [
            -0.105497,
            51.525488
          ],
          [
            -0.105514,
            51.525509
          ],
          [
            -0.105522,
            51.525524
          ],
          [
            -0.10552,
            51.525563
          ],
          [
            -0.105677,
            51.525532
          ],
          [
            -0.105699,
            51.525524
          ],
          [
            -0.105726,
            51.525514
          ],
          [
            -0.105749,
            51.525515
          ],
          [
            -0.105752,
            51.525546
          ],
          [
            -0.105767,
            51.525546
          ],
          [
            -0.105797,
            51.525546
          ],
          [
            -0.105843,
            51.525545
          ],
          [
            -0.10595,
            51.525561
          ],
          [
            -0.106031,
            51.525579
          ],
          [
            -0.106115,
            51.525618
          ],
          [
            -0.106212,
            51.525674
          ],
          [
            -0.106303,
            51.525739
          ],
          [
            -0.106366,
            51.525775
          ],
          [
            -0.106476,
            51.525826
          ],
          [
            -0.106479,
            51.525828
          ],
          [
            -0.106606,
            51.525878
          ],
          [
            -0.106767,
            51.525958
          ],
          [
            -0.10693,
            51.526035
          ],
          [
            -0.107025,
            51.526056
          ],
          [
            -0.107113,
            51.526075
          ],
          [
            -0.107231,
            51.526042
          ],
          [
            -0.107333,
            51.525924
          ],
          [
            -0.107365,
            51.525914
          ],
          [
            -0.107393,
            51.525906
          ],
          [
            -0.107458,
            51.525888
          ],
          [
            -0.107497,
            51.525878
          ],
          [
            -0.107762,
            51.525802
          ],
          [
            -0.107823,
            51.525811
          ],
          [
            -0.107934,
            51.525814
          ],
          [
            -0.108057,
            51.525812
          ],
          [
            -0.108242,
            51.525802
          ],
          [
            -0.108463,
            51.525773
          ],
          [
            -0.108566,
            51.525747
          ],
          [
            -0.108666,
            51.525713
          ],
          [
            -0.108802,
            51.525652
          ],
          [
            -0.108898,
            51.525609
          ],
          [
            -0.109015,
            51.525575
          ],
          [
            -0.109038,
            51.525577
          ],
          [
            -0.109303,
            51.525779
          ],
          [
            -0.109524,
            51.525656
          ]
        ]
      }
    }
  ]
}
