{
  "type": "FeatureCollection",
  "features": [
    {
      "type": "Feature",
      "properties": {
        "leg": 0,
        "polylineMetres": 958.41,
        "providerKm": 0.955,
        "providerSeconds": 803.227
      },
      "geometry": {
        "type": "LineString",
        "coordinates": [
          [
            -0.109524,
            51.525656
          ],
          [
            -0.109303,
            51.525779
          ],
          [
            -0.109264,
            51.525802
          ],
          [
            -0.109035,
            51.525908
          ],
          [
            -0.10866,
            51.526087
          ],
          [
            -0.108383,
            51.526217
          ],
          [
            -0.10827,
            51.526279
          ],
          [
            -0.108206,
            51.526315
          ],
          [
            -0.108053,
            51.526396
          ],
          [
            -0.108034,
            51.526406
          ],
          [
            -0.108006,
            51.526424
          ],
          [
            -0.108042,
            51.526421
          ],
          [
            -0.108084,
            51.526424
          ],
          [
            -0.108134,
            51.526427
          ],
          [
            -0.108161,
            51.526432
          ],
          [
            -0.108191,
            51.526439
          ],
          [
            -0.108227,
            51.526449
          ],
          [
            -0.108251,
            51.526453
          ],
          [
            -0.108245,
            51.526472
          ],
          [
            -0.108233,
            51.526509
          ],
          [
            -0.10822,
            51.526548
          ],
          [
            -0.108215,
            51.526563
          ],
          [
            -0.108189,
            51.526561
          ],
          [
            -0.108164,
            51.526565
          ],
          [
            -0.108125,
            51.52658
          ],
          [
            -0.108117,
            51.526584
          ],
          [
            -0.108106,
            51.526589
          ],
          [
            -0.10808,
            51.526601
          ],
          [
            -0.108063,
            51.526608
          ],
          [
            -0.108085,
            51.526627
          ],
          [
            -0.108114,
            51.526645
          ],
          [
            -0.108198,
            51.526715
          ],
          [
            -0.108227,
            51.526748
          ],
          [
            -0.108345,
            51.526842
          ],
          [
            -0.10836,
            51.526857
          ],
          [
            -0.108447,
            51.526902
          ],
          [
            -0.108325,
            51.526991
          ],
          [
            -0.108282,
            51.527021
          ],
          [
            -0.108242,
            51.527049
          ],
          [
            -0.108148,
            51.527108
          ],
          [
            -0.108098,
            51.527141
          ],
          [
            -0.10793,
            51.527261
          ],
          [
            -0.107882,
            51.527298
          ],
          [
            -0.107662,
            51.527476
          ],
          [
            -0.107503,
            51.527614
          ],
          [
            -0.107454,
            51.52767
          ],
          [
            -0.107333,
            51.527807
          ],
          [
            -0.10732,
            51.527821
          ],
          [
            -0.107214,
            51.52794
          ],
          [
            -0.107128,
            51.528031
          ],
          [
            -0.106996,
            51.528174
          ],
          [
            -0.106765,
            51.528424
          ],
          [
            -0.106581,
            51.528623
          ],
          [
            -0.106539,
            51.528668
          ],
          [
            -0.106387,
            51.528833
          ],
          [
            -0.106327,
            51.528898
          ],
          [
            -0.106173,
            51.529045
          ],
          [
            -0.10614,
            51.529077
          ],
          [
            -0.105739,
            51.529471
          ],
          [
            -0.105488,
            51.529727
          ],
          [
            -0.105405,
            51.529803
          ],
          [
            -0.105357,
            51.529843
          ],
          [
            -0.105219,
            51.52995
          ],
          [
            -0.105285,
            51.530054
          ],
          [
            -0.105319,
            51.530096
          ],
          [
            -0.105357,
            51.530142
          ],
          [
            -0.105644,
            51.530481
          ],
          [
            -0.105679,
            51.530522
          ],
          [
            -0.10573,
            51.530583
          ],
          [
            -0.105781,
            51.530648
          ],
          [
            -0.105838,
            51.530721
          ],
          [
            -0.105879,
            51.530779
          ],
          [
            -0.105905,
            51.530821
          ],
          [
            -0.106036,
            51.531041
          ],
          [
            -0.10608,
            51.531171
          ],
          [
            -0.106121,
            51.531317
          ],
          [
            -0.106173,
            51.531549
          ],
          [
            -0.106157,
            51.531651
          ],
          [
            -0.106166,
            51.53172
          ],
          [
            -0.10617,
            51.531776
          ],
          [
            -0.106185,
            51.531879
          ],
          [
            -0.106192,
            51.53195
          ],
          [
            -0.106194,
            51.531979
          ],
          [
            -0.106209,
            51.53207
          ],
          [
            -0.106161,
            51.532069
          ],
          [
            -0.106168,
            51.532097
          ],
          [
            -0.106165,
            51.53213
          ],
          [
            -0.106135,
            51.532183
          ],
          [
            -0.106134,
            51.532352
          ],
          [
            -0.106124,
            51.532559
          ],
          [
            -0.106008,
            51.53276
          ]
        ]
      }
    }
  ]
}
