{
  "type": "FeatureCollection",
  "features": [
    {
      "type": "Feature",
      "properties": {
        "leg": 0,
        "polylineMetres": 846.42,
        "providerKm": 0.844,
        "providerSeconds": 669.637
      },
      "geometry": {
        "type": "LineString",
        "coordinates": [
          [
            -0.109524,
            51.525656
          ],
          [
            -0.109578,
            51.525625
          ],
          [
            -0.109651,
            51.525582
          ],
          [
            -0.109766,
            51.525515
          ],
          [
            -0.109992,
            51.525376
          ],
          [
            -0.110012,
            51.525359
          ],
          [
            -0.110014,
            51.525336
          ],
          [
            -0.109991,
            51.525319
          ],
          [
            -0.109979,
            51.525309
          ],
          [
            -0.109707,
            51.525155
          ],
          [
            -0.109527,
            51.525057
          ],
          [
            -0.109336,
            51.524944
          ],
          [
            -0.109305,
            51.524919
          ],
          [
            -0.109298,
            51.524909
          ],
          [
            -0.109293,
            51.524901
          ],
          [
            -0.109303,
            51.52489
          ],
          [
            -0.109322,
            51.524876
          ],
          [
            -0.109357,
            51.524858
          ],
          [
            -0.109385,
            51.524849
          ],
          [
            -0.109635,
            51.524702
          ],
          [
            -0.109654,
            51.524716
          ],
          [
            -0.109906,
            51.52458
          ],
          [
            -0.109969,
            51.524546
          ],
          [
            -0.109883,
            51.524477
          ],
          [
            -0.109818,
            51.524426
          ],
          [
            -0.109665,
            51.524307
          ],
          [
            -0.109499,
            51.52418
          ],
          [
            -0.109395,
            51.524105
          ],
          [
            -0.109226,
            51.523989
          ],
          [
            -0.108943,
            51.523804
          ],
          [
            -0.108878,
            51.523762
          ],
          [
            -0.108779,
            51.523695
          ],
          [
            -0.10834,
            51.523393
          ],
          [
            -0.108233,
            51.523307
          ],
          [
            -0.108166,
            51.523255
          ],
          [
            -0.108131,
            51.523227
          ],
          [
            -0.107988,
            51.523109
          ],
          [
            -0.107914,
            51.523051
          ],
          [
            -0.107897,
            51.523034
          ],
          [
            -0.107878,
            51.523015
          ],
          [
            -0.107847,
            51.522986
          ],
          [
            -0.107553,
            51.522726
          ],
          [
            -0.107486,
            51.522665
          ],
          [
            -0.107301,
            51.52249
          ],
          [
            -0.107227,
            51.522414
          ],
          [
            -0.10716,
            51.522343
          ],
          [
            -0.10714,
            51.522324
          ],
          [
            -0.107111,
            51.522294
          ],
          [
            -0.107102,
            51.522286
          ],
          [
            -0.107085,
            51.522267
          ],
          [
            -0.107048,
            51.522221
          ],
          [
            -0.107011,
            51.522174
          ],
          [
            -0.106965,
            51.522116
          ],
          [
            -0.106949,
            51.5221
          ],
          [
            -0.106828,
            51.522107
          ],
          [
            -0.106815,
            51.522109
          ],
          [
            -0.10682,
            51.522124
          ],
          [
            -0.106817,
            51.522129
          ],
          [
            -0.106804,
            51.522134
          ],
          [
            -0.106789,
            51.522137
          ],
          [
            -0.106267,
            51.522175
          ],
          [
            -0.106236,
            51.52217
          ],
          [
            -0.106183,
            51.522066
          ],
          [
            -0.106116,
            51.521966
          ],
          [
            -0.106061,
            51.521884
          ],
          [
            -0.105941,
            51.521716
          ],
          [
            -0.105811,
            51.521578
          ],
          [
            -0.105741,
            51.521519
          ],
          [
            -0.105577,
            51.521375
          ],
          [
            -0.105406,
            51.52126
          ],
          [
            -0.105349,
            51.521227
          ],
          [
            -0.105266,
            51.521158
          ],
          [
            -0.105214,
            51.52112
          ],
          [
            -0.105232,
            51.521113
          ],
          [
            -0.10524,
            51.52111
          ],
          [
            -0.105273,
            51.521095
          ],
          [
            -0.105172,
            51.52097
          ],
          [
            -0.105112,
            51.52094
          ],
          [
            -0.105075,
            51.520922
          ],
          [
            -0.105007,
            51.520832
          ],
          [
            -0.104926,
            51.520726
          ],
          [
            -0.104823,
            51.520589
          ],
          [
            -0.104676,
            51.520396
          ],
          [
            -0.104666,
            51.52037
          ],
          [
            -0.104684,
            51.520364
          ],
          [
            -0.104714,
            51.520355
          ],
          [
            -0.10468,
            51.520312
          ],
          [
            -0.104853,
            51.520258
          ],
          [
            -0.104963,
            51.520268
          ],
          [
            -0.104959,
            51.520286
          ]
        ]
      }
    }
  ]
}
