{
  "type": "FeatureCollection",
  "features": [
    {
      "type": "Feature",
      "properties": {
        "leg": 0,
        "polylineMetres": 457.25,
        "providerKm": 0.457,
        "providerSeconds": 376.264
      },
      "geometry": {
        "type": "LineString",
        "coordinates": [
          [
            -0.105639,
            51.522939
          ],
          [
            -0.105635,
            51.522941
          ],
          [
            -0.10541,
            51.523034
          ],
          [
            -0.105391,
            51.523043
          ],
          [
            -0.105311,
            51.52308
          ],
          [
            -0.105269,
            51.523091
          ],
          [
            -0.10525,
            51.523096
          ],
          [
            -0.105348,
            51.523197
          ],
          [
            -0.105488,
            51.523312
          ],
          [
            -0.105588,
            51.52337
          ],
          [
            -0.105666,
            51.523383
          ],
          [
            -0.10571,
            51.52338
          ],
          [
            -0.105716,
            51.52338
          ],
          [
            -0.105804,
            51.523382
          ],
          [
            -0.105922,
            51.523375
          ],
          [
            -0.105922,
            51.523375
          ],
          [
            -0.106052,
            51.523349
          ],
          [
            -0.106117,
            51.52333
          ],
          [
            -0.106183,
            51.523329
          ],
          [
            -0.106224,
            51.52334
          ],
          [
            -0.106435,
            51.523521
          ],
          [
            -0.106594,
            51.523658
          ],
          [
            -0.10663,
            51.523689
          ],
          [
            -0.106677,
            51.523743
          ],
          [
            -0.106676,
            51.523782
          ],
          [
            -0.10665,
            51.523806
          ],
          [
            -0.106622,
            51.52383
          ],
          [
            -0.106547,
            51.52388
          ],
          [
            -0.106499,
            51.523925
          ],
          [
            -0.106401,
            51.524033
          ],
          [
            -0.106296,
            51.524118
          ],
          [
            -0.106216,
            51.524126
          ],
          [
            -0.106226,
            51.524136
          ],
          [
            -0.106206,
            51.524144
          ],
          [
            -0.106216,
            51.524155
          ],
          [
            -0.10622,
            51.524159
          ],
          [
            -0.106055,
            51.52423
          ],
          [
            -0.10591,
            51.524292
          ],
          [
            -0.105701,
            51.52438
          ],
          [
            -0.105619,
            51.524414
          ],
          [
            -0.105522,
            51.524403
          ],
          [
            -0.104804,
            51.524757
          ],
          [
            -0.104793,
            51.524751
          ],
          [
            -0.104772,
            51.524736
          ],
          [
            -0.104737,
            51.524753
          ],
          [
            -0.104526,
            51.524574
          ],
          [
            -0.104553,
            51.524451
          ],
          [
            -0.104492,
            51.524446
          ],
          [
            -0.104428,
            51.524436
          ],
          [
            -0.10442,
            51.524432
          ],
          [
            -0.10444,
            51.52441
          ],
          [
            -0.104454,
            51.524391
          ],
          [
            -0.10442,
            51.524395
          ],
          [
            -0.104385,
            51.524383
          ],
          [
            -0.104348,
            51.524349
          ],
          [
            -0.104096,
            51.524136
          ],
          [
            -0.104042,
            51.524088
          ]
        ]
      }
    },
    {
      "type": "Feature",
      "properties": {
        "leg": 1,
        "polylineMetres": 230.8,
        "providerKm": 0.23,
        "providerSeconds": 189.466
      },
      "geometry": {
        "type": "LineString",
        "coordinates": [
          [
            -0.104042,
            51.524088
          ],
          [
            -0.104096,
            51.524136
          ],
          [
            -0.104348,
            51.524349
          ],
          [
            -0.104385,
            51.524383
          ],
          [
            -0.10442,
            51.524395
          ],
          [
            -0.104454,
            51.524391
          ],
          [
            -0.10444,
            51.52441
          ],
          [
            -0.10442,
            51.524432
          ],
          [
            -0.104411,
            51.524443
          ],
          [
            -0.104396,
            51.524453
          ],
          [
            -0.104417,
            51.524471
          ],
          [
            -0.104443,
            51.524525
          ],
          [
            -0.104453,
            51.524625
          ],
          [
            -0.10444,
            51.524978
          ],
          [
            -0.104388,
            51.525272
          ],
          [
            -0.104352,
            51.525353
          ],
          [
            -0.104299,
            51.525416
          ],
          [
            -0.104272,
            51.525448
          ],
          [
            -0.104267,
            51.525454
          ],
          [
            -0.104255,
            51.525468
          ],
          [
            -0.104237,
            51.52547
          ],
          [
            -0.104192,
            51.525475
          ],
          [
            -0.104194,
            51.525487
          ],
          [
            -0.104196,
            51.5255
          ],
          [
            -0.104206,
            51.525531
          ],
          [
            -0.104209,
            51.525548
          ],
          [
            -0.104158,
            51.525702
          ],
          [
            -0.104144,
            51.5257
          ],
          [
            -0.104074,
            51.52569
          ],
          [
            -0.103993,
            51.525679
          ],
          [
            -0.10398,
            51.525677
          ],
          [
            -0.103994,
            51.525636
          ],
          [
            -0.103997,
            51.525511
          ]
        ]
      }
    },
    {
      "type": "Feature",
      "properties": {
        "leg": 2,
        "polylineMetres": 478.38,
        "providerKm": 0.478,
        "providerSeconds": 415.416
      },
      "geometry": {
        "type": "LineString",
        "coordinates": [
          [
            -0.103997,
            51.525511
          ],
          [
            -0.103994,
            51.525636
          ],
          [
            -0.10398,
            51.525677
          ],
          [
            -0.103993,
            51.525679
          ],
          [
            -0.104074,
            51.52569
          ],
          [
            -0.104144,
            51.5257
          ],
          [
            -0.104158,
            51.525702
          ],
          [
            -0.104217,
            51.525732
          ],
          [
            -0.104207,
            51.525744
          ],
          [
            -0.104204,
            51.525793
          ],
          [
            -0.104202,
            51.525843
          ],
          [
            -0.1042,
            51.525855
          ],
          [
            -0.104217,
            51.525853
          ],
          [
            -0.104279,
            51.525846
          ],
          [
            -0.104329,
            51.525839
          ],
          [
            -0.104371,
            51.525833
          ],
          [
            -0.104522,
            51.525816
          ],
          [
            -0.104765,
            51.525778
          ],
          [
            -0.105036,
            51.525746
          ],
          [
            -0.105036,
            51.525746
          ],
          [
            -0.105166,
            51.525749
          ],
          [
            -0.105456,
            51.525772
          ],
          [
            -0.105514,
            51.525776
          ],
          [
            -0.105683,
            51.525811
          ],
          [
            -0.105731,
            51.525823
          ],
          [
            -0.105856,
            51.525864
          ],
          [
            -0.106013,
            51.525929
          ],
          [
            -0.106453,
            51.52615
          ],
          [
            -0.106668,
            51.526249
          ],
          [
            -0.106714,
            51.526266
          ],
          [
            -0.10676,
            51.526277
          ],
          [
            -0.106946,
            51.526294
          ],
          [
            -0.106946,
            51.526294
          ],
          [
            -0.107098,
            51.526299
          ],
          [
            -0.107297,
            51.526306
          ],
          [
            -0.10736,
            51.526311
          ],
          [
            -0.107395,
            51.526315
          ],
          [
            -0.107446,
            51.526324
          ],
          [
            -0.107493,
            51.526343
          ],
          [
            -0.107662,
            51.526453
          ],
          [
            -0.10775,
            51.526415
          ],
          [
            -0.107802,
            51.526395
          ],
          [
            -0.107833,
            51.526383
          ],
          [
            -0.107865,
            51.526413
          ],
          [
            -0.107938,
            51.526425
          ],
          [
            -0.107988,
            51.526425
          ],
          [
            -0.108006,
            51.526424
          ],
          [
            -0.108034,
            51.526406
          ],
          [
            -0.108053,
            51.526396
          ],
          [
            -0.108206,
            51.526315
          ],
          [
            -0.10827,
            51.526279
          ],
          [
            -0.108383,
            51.526217
          ],
          [
            -0.10866,
            51.526087
          ],
          [
            -0.109035,
            51.525908
          ],
          [
            -0.109264,
            51.525802
          ],
          [
            -0.109303,
            51.525779
          ],
          [
            -0.109524,
            51.525656
          ]
        ]
      }
    }
  ]
}
