{
  "type": "FeatureCollection",
  "features": [
    {
      "type": "Feature",
      "properties": {
        "leg": 0,
        "polylineMetres": 472.35,
        "providerKm": 0.476,
        "providerSeconds": 405.983,
        "role": "approach",
        "fromStop": "farringdon",
        "toStop": "charterhouse",
        "playback": "Do not press Start until Charterhouse"
      },
      "geometry": {
        "type": "LineString",
        "coordinates": [
          [
            -0.104959,
            51.520286
          ],
          [
            -0.104963,
            51.520268
          ],
          [
            -0.104853,
            51.520258
          ],
          [
            -0.10468,
            51.520312
          ],
          [
            -0.104714,
            51.520355
          ],
          [
            -0.104684,
            51.520364
          ],
          [
            -0.104666,
            51.52037
          ],
          [
            -0.104633,
            51.520341
          ],
          [
            -0.104625,
            51.520343
          ],
          [
            -0.104619,
            51.520344
          ],
          [
            -0.104566,
            51.520285
          ],
          [
            -0.104472,
            51.520204
          ],
          [
            -0.104408,
            51.52016
          ],
          [
            -0.104388,
            51.520172
          ],
          [
            -0.104331,
            51.520159
          ],
          [
            -0.104184,
            51.520141
          ],
          [
            -0.104,
            51.520138
          ],
          [
            -0.103559,
            51.520143
          ],
          [
            -0.103348,
            51.520145
          ],
          [
            -0.103254,
            51.520146
          ],
          [
            -0.103189,
            51.520146
          ],
          [
            -0.103131,
            51.520144
          ],
          [
            -0.102937,
            51.52013
          ],
          [
            -0.102769,
            51.520118
          ],
          [
            -0.102504,
            51.520101
          ],
          [
            -0.102436,
            51.520092
          ],
          [
            -0.102392,
            51.520087
          ],
          [
            -0.10222,
            51.520022
          ],
          [
            -0.102097,
            51.519908
          ],
          [
            -0.102078,
            51.519897
          ],
          [
            -0.102028,
            51.51988
          ],
          [
            -0.101967,
            51.51988
          ],
          [
            -0.10186,
            51.519885
          ],
          [
            -0.101818,
            51.519879
          ],
          [
            -0.101781,
            51.51987
          ],
          [
            -0.101747,
            51.519849
          ],
          [
            -0.101728,
            51.519808
          ],
          [
            -0.101705,
            51.519793
          ],
          [
            -0.101673,
            51.51982
          ],
          [
            -0.101662,
            51.519829
          ],
          [
            -0.101656,
            51.519828
          ],
          [
            -0.10164,
            51.519828
          ],
          [
            -0.101606,
            51.519832
          ],
          [
            -0.101303,
            51.519905
          ],
          [
            -0.101267,
            51.519914
          ],
          [
            -0.100978,
            51.519995
          ],
          [
            -0.100949,
            51.520012
          ],
          [
            -0.100932,
            51.520024
          ],
          [
            -0.100853,
            51.520126
          ],
          [
            -0.10084,
            51.520137
          ],
          [
            -0.100829,
            51.520147
          ],
          [
            -0.10042,
            51.520538
          ],
          [
            -0.100399,
            51.520566
          ],
          [
            -0.100392,
            51.520572
          ],
          [
            -0.100343,
            51.520549
          ],
          [
            -0.100205,
            51.52066
          ],
          [
            -0.100181,
            51.520677
          ],
          [
            -0.099965,
            51.520847
          ],
          [
            -0.099924,
            51.52088
          ],
          [
            -0.099773,
            51.521002
          ],
          [
            -0.099735,
            51.521022
          ],
          [
            -0.099701,
            51.521032
          ]
        ]
      }
    },
    {
      "type": "Feature",
      "properties": {
        "role": "tour",
        "verification": "desk-reviewed-candidate",
        "attribution": "OpenStreetMap contributors / Valhalla",
        "providerKm": 2.263,
        "providerSeconds": 1883.502
      },
      "geometry": {
        "type": "LineString",
        "coordinates": [
          [
            -0.099701,
            51.521032
          ],
          [
            -0.099735,
            51.521022
          ],
          [
            -0.099773,
            51.521002
          ],
          [
            -0.099924,
            51.52088
          ],
          [
            -0.099965,
            51.520847
          ],
          [
            -0.100181,
            51.520677
          ],
          [
            -0.100205,
            51.52066
          ],
          [
            -0.100343,
            51.520549
          ],
          [
            -0.100392,
            51.520572
          ],
          [
            -0.100399,
            51.520566
          ],
          [
            -0.10042,
            51.520538
          ],
          [
            -0.100829,
            51.520147
          ],
          [
            -0.10084,
            51.520137
          ],
          [
            -0.100853,
            51.520126
          ],
          [
            -0.100932,
            51.520024
          ],
          [
            -0.100949,
            51.520012
          ],
          [
            -0.100978,
            51.519995
          ],
          [
            -0.101267,
            51.519914
          ],
          [
            -0.101303,
            51.519905
          ],
          [
            -0.101606,
            51.519832
          ],
          [
            -0.10164,
            51.519828
          ],
          [
            -0.101656,
            51.519828
          ],
          [
            -0.101662,
            51.519829
          ],
          [
            -0.101673,
            51.51982
          ],
          [
            -0.101705,
            51.519793
          ],
          [
            -0.101735,
            51.519772
          ],
          [
            -0.101773,
            51.519752
          ],
          [
            -0.101803,
            51.519753
          ],
          [
            -0.101832,
            51.519756
          ],
          [
            -0.101861,
            51.519758
          ],
          [
            -0.101887,
            51.519761
          ],
          [
            -0.101871,
            51.519839
          ],
          [
            -0.101866,
            51.519858
          ],
          [
            -0.10186,
            51.519885
          ],
          [
            -0.101848,
            51.519932
          ],
          [
            -0.101848,
            51.519936
          ],
          [
            -0.101847,
            51.519939
          ],
          [
            -0.101839,
            51.519991
          ],
          [
            -0.101837,
            51.520009
          ],
          [
            -0.101831,
            51.520238
          ],
          [
            -0.101858,
            51.520631
          ],
          [
            -0.10186,
            51.520654
          ],
          [
            -0.101868,
            51.52067
          ],
          [
            -0.101886,
            51.520697
          ],
          [
            -0.102055,
            51.520908
          ],
          [
            -0.10217,
            51.521052
          ],
          [
            -0.102176,
            51.521059
          ],
          [
            -0.102186,
            51.521071
          ],
          [
            -0.102249,
            51.52115
          ],
          [
            -0.102332,
            51.521291
          ],
          [
            -0.102356,
            51.521303
          ],
          [
            -0.102348,
            51.521319
          ],
          [
            -0.102365,
            51.521338
          ],
          [
            -0.102387,
            51.521364
          ],
          [
            -0.10241,
            51.521372
          ],
          [
            -0.102404,
            51.521397
          ],
          [
            -0.102492,
            51.521538
          ],
          [
            -0.102532,
            51.521581
          ],
          [
            -0.102616,
            51.521693
          ],
          [
            -0.102641,
            51.521714
          ],
          [
            -0.102658,
            51.521723
          ],
          [
            -0.102694,
            51.521726
          ],
          [
            -0.102726,
            51.521722
          ],
          [
            -0.102995,
            51.521655
          ],
          [
            -0.103024,
            51.521648
          ],
          [
            -0.103107,
            51.521623
          ],
          [
            -0.103149,
            51.521615
          ],
          [
            -0.103363,
            51.521569
          ],
          [
            -0.103497,
            51.521524
          ],
          [
            -0.103549,
            51.521501
          ],
          [
            -0.103697,
            51.52144
          ],
          [
            -0.103742,
            51.52142
          ],
          [
            -0.103756,
            51.521423
          ],
          [
            -0.103778,
            51.521441
          ],
          [
            -0.103802,
            51.521464
          ],
          [
            -0.103801,
            51.521471
          ],
          [
            -0.103805,
            51.521471
          ],
          [
            -0.103823,
            51.521474
          ],
          [
            -0.103906,
            51.521546
          ],
          [
            -0.103823,
            51.521474
          ],
          [
            -0.103805,
            51.521471
          ],
          [
            -0.103801,
            51.521471
          ],
          [
            -0.103776,
            51.521472
          ],
          [
            -0.103528,
            51.521552
          ],
          [
            -0.102979,
            51.521727
          ],
          [
            -0.102679,
            51.521813
          ],
          [
            -0.102673,
            51.52181
          ],
          [
            -0.102652,
            51.521783
          ],
          [
            -0.10262,
            51.521793
          ],
          [
            -0.102701,
            51.521914
          ],
          [
            -0.102713,
            51.521936
          ],
          [
            -0.102736,
            51.521972
          ],
          [
            -0.10278,
            51.522038
          ],
          [
            -0.102808,
            51.522075
          ],
          [
            -0.102848,
            51.522112
          ],
          [
            -0.10292,
            51.522178
          ],
          [
            -0.103609,
            51.521978
          ],
          [
            -0.103701,
            51.521951
          ],
          [
            -0.103753,
            51.52192
          ],
          [
            -0.10376,
            51.521917
          ],
          [
            -0.104007,
            51.521817
          ],
          [
            -0.104125,
            51.521766
          ],
          [
            -0.104145,
            51.521757
          ],
          [
            -0.104171,
            51.52178
          ],
          [
            -0.1044,
            51.521991
          ],
          [
            -0.104522,
            51.522094
          ],
          [
            -0.104613,
            51.522158
          ],
          [
            -0.104682,
            51.522207
          ],
          [
            -0.104761,
            51.522281
          ],
          [
            -0.104795,
            51.522318
          ],
          [
            -0.104811,
            51.522357
          ],
          [
            -0.104833,
            51.522354
          ],
          [
            -0.104927,
            51.522341
          ],
          [
            -0.105014,
            51.52233
          ],
          [
            -0.105042,
            51.522326
          ],
          [
            -0.105963,
            51.522197
          ],
          [
            -0.105967,
            51.522208
          ],
          [
            -0.105983,
            51.522262
          ],
          [
            -0.105996,
            51.52231
          ],
          [
            -0.106004,
            51.522328
          ],
          [
            -0.1061,
            51.522315
          ],
          [
            -0.106149,
            51.522318
          ],
          [
            -0.10617,
            51.522388
          ],
          [
            -0.106317,
            51.522544
          ],
          [
            -0.106326,
            51.522559
          ],
          [
            -0.106337,
            51.522572
          ],
          [
            -0.106348,
            51.522593
          ],
          [
            -0.106355,
            51.522701
          ],
          [
            -0.106338,
            51.522706
          ],
          [
            -0.105895,
            51.522842
          ],
          [
            -0.105639,
            51.522939
          ],
          [
            -0.105635,
            51.522941
          ],
          [
            -0.10541,
            51.523034
          ],
          [
            -0.105391,
            51.523043
          ],
          [
            -0.105311,
            51.52308
          ],
          [
            -0.105269,
            51.523091
          ],
          [
            -0.10525,
            51.523096
          ],
          [
            -0.105348,
            51.523197
          ],
          [
            -0.105488,
            51.523312
          ],
          [
            -0.105588,
            51.52337
          ],
          [
            -0.105666,
            51.523383
          ],
          [
            -0.10571,
            51.52338
          ],
          [
            -0.105716,
            51.52338
          ],
          [
            -0.105804,
            51.523382
          ],
          [
            -0.105922,
            51.523375
          ],
          [
            -0.106052,
            51.523349
          ],
          [
            -0.106117,
            51.52333
          ],
          [
            -0.106183,
            51.523329
          ],
          [
            -0.106224,
            51.52334
          ],
          [
            -0.106435,
            51.523521
          ],
          [
            -0.106594,
            51.523658
          ],
          [
            -0.10663,
            51.523689
          ],
          [
            -0.106677,
            51.523743
          ],
          [
            -0.106676,
            51.523782
          ],
          [
            -0.10665,
            51.523806
          ],
          [
            -0.106622,
            51.52383
          ],
          [
            -0.106547,
            51.52388
          ],
          [
            -0.106499,
            51.523925
          ],
          [
            -0.106401,
            51.524033
          ],
          [
            -0.106296,
            51.524118
          ],
          [
            -0.106216,
            51.524126
          ],
          [
            -0.106226,
            51.524136
          ],
          [
            -0.106206,
            51.524144
          ],
          [
            -0.106216,
            51.524155
          ],
          [
            -0.10622,
            51.524159
          ],
          [
            -0.106055,
            51.52423
          ],
          [
            -0.10591,
            51.524292
          ],
          [
            -0.105701,
            51.52438
          ],
          [
            -0.105619,
            51.524414
          ],
          [
            -0.105522,
            51.524403
          ],
          [
            -0.104804,
            51.524757
          ],
          [
            -0.104793,
            51.524751
          ],
          [
            -0.104772,
            51.524736
          ],
          [
            -0.104737,
            51.524753
          ],
          [
            -0.104526,
            51.524574
          ],
          [
            -0.104553,
            51.524451
          ],
          [
            -0.104492,
            51.524446
          ],
          [
            -0.104428,
            51.524436
          ],
          [
            -0.10442,
            51.524432
          ],
          [
            -0.10444,
            51.52441
          ],
          [
            -0.104454,
            51.524391
          ],
          [
            -0.10442,
            51.524395
          ],
          [
            -0.104385,
            51.524383
          ],
          [
            -0.104348,
            51.524349
          ],
          [
            -0.104096,
            51.524136
          ],
          [
            -0.104042,
            51.524088
          ],
          [
            -0.104096,
            51.524136
          ],
          [
            -0.104348,
            51.524349
          ],
          [
            -0.104385,
            51.524383
          ],
          [
            -0.10442,
            51.524395
          ],
          [
            -0.104454,
            51.524391
          ],
          [
            -0.10444,
            51.52441
          ],
          [
            -0.10442,
            51.524432
          ],
          [
            -0.104411,
            51.524443
          ],
          [
            -0.104396,
            51.524453
          ],
          [
            -0.104417,
            51.524471
          ],
          [
            -0.104443,
            51.524525
          ],
          [
            -0.104453,
            51.524625
          ],
          [
            -0.10444,
            51.524978
          ],
          [
            -0.104388,
            51.525272
          ],
          [
            -0.104352,
            51.525353
          ],
          [
            -0.104299,
            51.525416
          ],
          [
            -0.104272,
            51.525448
          ],
          [
            -0.104267,
            51.525454
          ],
          [
            -0.104255,
            51.525468
          ],
          [
            -0.104237,
            51.52547
          ],
          [
            -0.104192,
            51.525475
          ],
          [
            -0.104194,
            51.525487
          ],
          [
            -0.104196,
            51.5255
          ],
          [
            -0.104206,
            51.525531
          ],
          [
            -0.104209,
            51.525548
          ],
          [
            -0.104158,
            51.525702
          ],
          [
            -0.104144,
            51.5257
          ],
          [
            -0.104074,
            51.52569
          ],
          [
            -0.103993,
            51.525679
          ],
          [
            -0.10398,
            51.525677
          ],
          [
            -0.103994,
            51.525636
          ],
          [
            -0.103997,
            51.525511
          ],
          [
            -0.103994,
            51.525636
          ],
          [
            -0.10398,
            51.525677
          ],
          [
            -0.103993,
            51.525679
          ],
          [
            -0.104074,
            51.52569
          ],
          [
            -0.104144,
            51.5257
          ],
          [
            -0.104158,
            51.525702
          ],
          [
            -0.104217,
            51.525732
          ],
          [
            -0.104207,
            51.525744
          ],
          [
            -0.104204,
            51.525793
          ],
          [
            -0.104202,
            51.525843
          ],
          [
            -0.1042,
            51.525855
          ],
          [
            -0.104217,
            51.525853
          ],
          [
            -0.104279,
            51.525846
          ],
          [
            -0.104329,
            51.525839
          ],
          [
            -0.104371,
            51.525833
          ],
          [
            -0.104522,
            51.525816
          ],
          [
            -0.104765,
            51.525778
          ],
          [
            -0.105036,
            51.525746
          ],
          [
            -0.105166,
            51.525749
          ],
          [
            -0.105456,
            51.525772
          ],
          [
            -0.105514,
            51.525776
          ],
          [
            -0.105683,
            51.525811
          ],
          [
            -0.105731,
            51.525823
          ],
          [
            -0.105856,
            51.525864
          ],
          [
            -0.106013,
            51.525929
          ],
          [
            -0.106453,
            51.52615
          ],
          [
            -0.106668,
            51.526249
          ],
          [
            -0.106714,
            51.526266
          ],
          [
            -0.10676,
            51.526277
          ],
          [
            -0.106946,
            51.526294
          ],
          [
            -0.107098,
            51.526299
          ],
          [
            -0.107297,
            51.526306
          ],
          [
            -0.10736,
            51.526311
          ],
          [
            -0.107395,
            51.526315
          ],
          [
            -0.107446,
            51.526324
          ],
          [
            -0.107493,
            51.526343
          ],
          [
            -0.107662,
            51.526453
          ],
          [
            -0.10775,
            51.526415
          ],
          [
            -0.107802,
            51.526395
          ],
          [
            -0.107833,
            51.526383
          ],
          [
            -0.107865,
            51.526413
          ],
          [
            -0.107938,
            51.526425
          ],
          [
            -0.107988,
            51.526425
          ],
          [
            -0.108006,
            51.526424
          ],
          [
            -0.108034,
            51.526406
          ],
          [
            -0.108053,
            51.526396
          ],
          [
            -0.108206,
            51.526315
          ],
          [
            -0.10827,
            51.526279
          ],
          [
            -0.108383,
            51.526217
          ],
          [
            -0.10866,
            51.526087
          ],
          [
            -0.109035,
            51.525908
          ],
          [
            -0.109264,
            51.525802
          ],
          [
            -0.109303,
            51.525779
          ],
          [
            -0.109524,
            51.525656
          ]
        ]
      }
    }
  ]
}
