{
  "type": "FeatureCollection",
  "features": [
    {
      "type": "Feature",
      "properties": {
        "status": "desk-candidate",
        "attribution": "© OpenStreetMap contributors, ODbL"
      },
      "geometry": {
        "type": "LineString",
        "coordinates": [
          [
            -0.104959,
            51.520286
          ],
          [
            -0.104963,
            51.520268
          ],
          [
            -0.104853,
            51.520258
          ],
          [
            -0.10468,
            51.520312
          ],
          [
            -0.104714,
            51.520355
          ],
          [
            -0.104684,
            51.520364
          ],
          [
            -0.104666,
            51.52037
          ],
          [
            -0.104633,
            51.520341
          ],
          [
            -0.104625,
            51.520343
          ],
          [
            -0.104619,
            51.520344
          ],
          [
            -0.104566,
            51.520285
          ],
          [
            -0.104472,
            51.520204
          ],
          [
            -0.104408,
            51.52016
          ],
          [
            -0.104388,
            51.520172
          ],
          [
            -0.104331,
            51.520159
          ],
          [
            -0.104184,
            51.520141
          ],
          [
            -0.104,
            51.520138
          ],
          [
            -0.103559,
            51.520143
          ],
          [
            -0.103348,
            51.520145
          ],
          [
            -0.103254,
            51.520146
          ],
          [
            -0.103189,
            51.520146
          ],
          [
            -0.103131,
            51.520144
          ],
          [
            -0.102937,
            51.52013
          ],
          [
            -0.102769,
            51.520118
          ],
          [
            -0.102504,
            51.520101
          ],
          [
            -0.102436,
            51.520092
          ],
          [
            -0.102392,
            51.520087
          ],
          [
            -0.10222,
            51.520022
          ],
          [
            -0.102097,
            51.519908
          ],
          [
            -0.102078,
            51.519897
          ],
          [
            -0.102028,
            51.51988
          ],
          [
            -0.101967,
            51.51988
          ],
          [
            -0.10186,
            51.519885
          ],
          [
            -0.101866,
            51.519858
          ],
          [
            -0.101871,
            51.519839
          ],
          [
            -0.101866,
            51.519858
          ],
          [
            -0.10186,
            51.519885
          ],
          [
            -0.101848,
            51.519932
          ],
          [
            -0.101848,
            51.519936
          ],
          [
            -0.101847,
            51.519939
          ],
          [
            -0.101839,
            51.519991
          ],
          [
            -0.101837,
            51.520009
          ],
          [
            -0.101831,
            51.520238
          ],
          [
            -0.101858,
            51.520631
          ],
          [
            -0.10186,
            51.520654
          ],
          [
            -0.101868,
            51.52067
          ],
          [
            -0.101886,
            51.520697
          ],
          [
            -0.102055,
            51.520908
          ],
          [
            -0.10217,
            51.521052
          ],
          [
            -0.102176,
            51.521059
          ],
          [
            -0.102186,
            51.521071
          ],
          [
            -0.102249,
            51.52115
          ],
          [
            -0.102332,
            51.521291
          ],
          [
            -0.102356,
            51.521303
          ],
          [
            -0.102348,
            51.521319
          ],
          [
            -0.102365,
            51.521338
          ],
          [
            -0.102387,
            51.521364
          ],
          [
            -0.10241,
            51.521372
          ],
          [
            -0.102404,
            51.521397
          ],
          [
            -0.102492,
            51.521538
          ],
          [
            -0.102532,
            51.521581
          ],
          [
            -0.102616,
            51.521693
          ],
          [
            -0.102641,
            51.521714
          ],
          [
            -0.102658,
            51.521723
          ],
          [
            -0.102694,
            51.521726
          ],
          [
            -0.102726,
            51.521722
          ],
          [
            -0.102995,
            51.521655
          ],
          [
            -0.103024,
            51.521648
          ],
          [
            -0.103107,
            51.521623
          ],
          [
            -0.103149,
            51.521615
          ],
          [
            -0.103363,
            51.521569
          ],
          [
            -0.103497,
            51.521524
          ],
          [
            -0.103549,
            51.521501
          ],
          [
            -0.103697,
            51.52144
          ],
          [
            -0.103742,
            51.52142
          ],
          [
            -0.103756,
            51.521423
          ],
          [
            -0.103778,
            51.521441
          ],
          [
            -0.103802,
            51.521464
          ],
          [
            -0.103801,
            51.521471
          ],
          [
            -0.103805,
            51.521471
          ],
          [
            -0.103823,
            51.521474
          ],
          [
            -0.103906,
            51.521546
          ],
          [
            -0.103823,
            51.521474
          ],
          [
            -0.103805,
            51.521471
          ],
          [
            -0.103801,
            51.521471
          ],
          [
            -0.103776,
            51.521472
          ],
          [
            -0.103528,
            51.521552
          ],
          [
            -0.102979,
            51.521727
          ],
          [
            -0.102679,
            51.521813
          ],
          [
            -0.102673,
            51.52181
          ],
          [
            -0.102652,
            51.521783
          ],
          [
            -0.10262,
            51.521793
          ],
          [
            -0.102701,
            51.521914
          ],
          [
            -0.102713,
            51.521936
          ],
          [
            -0.102736,
            51.521972
          ],
          [
            -0.10278,
            51.522038
          ],
          [
            -0.102808,
            51.522075
          ],
          [
            -0.102848,
            51.522112
          ],
          [
            -0.10292,
            51.522178
          ],
          [
            -0.103609,
            51.521978
          ],
          [
            -0.103701,
            51.521951
          ],
          [
            -0.103753,
            51.52192
          ],
          [
            -0.10376,
            51.521917
          ],
          [
            -0.104007,
            51.521817
          ],
          [
            -0.104125,
            51.521766
          ],
          [
            -0.104145,
            51.521757
          ],
          [
            -0.104171,
            51.52178
          ],
          [
            -0.1044,
            51.521991
          ],
          [
            -0.104522,
            51.522094
          ],
          [
            -0.104613,
            51.522158
          ],
          [
            -0.104682,
            51.522207
          ],
          [
            -0.104761,
            51.522281
          ],
          [
            -0.104795,
            51.522318
          ],
          [
            -0.104811,
            51.522357
          ],
          [
            -0.104833,
            51.522354
          ],
          [
            -0.104927,
            51.522341
          ],
          [
            -0.105014,
            51.52233
          ],
          [
            -0.105042,
            51.522326
          ],
          [
            -0.105963,
            51.522197
          ],
          [
            -0.105967,
            51.522208
          ],
          [
            -0.105983,
            51.522262
          ],
          [
            -0.105996,
            51.52231
          ],
          [
            -0.106004,
            51.522328
          ],
          [
            -0.1061,
            51.522315
          ],
          [
            -0.106149,
            51.522318
          ],
          [
            -0.10617,
            51.522388
          ],
          [
            -0.106317,
            51.522544
          ],
          [
            -0.106326,
            51.522559
          ],
          [
            -0.106337,
            51.522572
          ],
          [
            -0.106348,
            51.522593
          ],
          [
            -0.106355,
            51.522701
          ],
          [
            -0.106338,
            51.522706
          ],
          [
            -0.105895,
            51.522842
          ],
          [
            -0.105639,
            51.522939
          ],
          [
            -0.105635,
            51.522941
          ],
          [
            -0.10541,
            51.523034
          ],
          [
            -0.105391,
            51.523043
          ],
          [
            -0.105311,
            51.52308
          ],
          [
            -0.105269,
            51.523091
          ],
          [
            -0.10525,
            51.523096
          ],
          [
            -0.105348,
            51.523197
          ],
          [
            -0.105488,
            51.523312
          ],
          [
            -0.105588,
            51.52337
          ],
          [
            -0.105666,
            51.523383
          ],
          [
            -0.10571,
            51.52338
          ],
          [
            -0.105716,
            51.52338
          ],
          [
            -0.105804,
            51.523382
          ],
          [
            -0.105922,
            51.523375
          ],
          [
            -0.106052,
            51.523349
          ],
          [
            -0.106117,
            51.52333
          ],
          [
            -0.106183,
            51.523329
          ],
          [
            -0.106224,
            51.52334
          ],
          [
            -0.106435,
            51.523521
          ],
          [
            -0.106594,
            51.523658
          ],
          [
            -0.10663,
            51.523689
          ],
          [
            -0.106677,
            51.523743
          ],
          [
            -0.106676,
            51.523782
          ],
          [
            -0.10665,
            51.523806
          ],
          [
            -0.106622,
            51.52383
          ],
          [
            -0.106547,
            51.52388
          ],
          [
            -0.106499,
            51.523925
          ],
          [
            -0.106401,
            51.524033
          ],
          [
            -0.106296,
            51.524118
          ],
          [
            -0.106216,
            51.524126
          ],
          [
            -0.106226,
            51.524136
          ],
          [
            -0.106206,
            51.524144
          ],
          [
            -0.106216,
            51.524155
          ],
          [
            -0.10622,
            51.524159
          ],
          [
            -0.106055,
            51.52423
          ],
          [
            -0.10591,
            51.524292
          ],
          [
            -0.105701,
            51.52438
          ],
          [
            -0.105619,
            51.524414
          ],
          [
            -0.105522,
            51.524403
          ],
          [
            -0.104804,
            51.524757
          ],
          [
            -0.104793,
            51.524751
          ],
          [
            -0.104772,
            51.524736
          ],
          [
            -0.104737,
            51.524753
          ],
          [
            -0.104526,
            51.524574
          ],
          [
            -0.104553,
            51.524451
          ],
          [
            -0.104492,
            51.524446
          ],
          [
            -0.104428,
            51.524436
          ],
          [
            -0.10442,
            51.524432
          ],
          [
            -0.10444,
            51.52441
          ],
          [
            -0.104454,
            51.524391
          ],
          [
            -0.10442,
            51.524395
          ],
          [
            -0.104385,
            51.524383
          ],
          [
            -0.104348,
            51.524349
          ],
          [
            -0.104096,
            51.524136
          ],
          [
            -0.104042,
            51.524088
          ],
          [
            -0.104035,
            51.524082
          ],
          [
            -0.104096,
            51.524136
          ],
          [
            -0.104348,
            51.524349
          ],
          [
            -0.104385,
            51.524383
          ],
          [
            -0.10442,
            51.524395
          ],
          [
            -0.104454,
            51.524391
          ],
          [
            -0.104473,
            51.524389
          ],
          [
            -0.104499,
            51.524371
          ],
          [
            -0.104557,
            51.524114
          ],
          [
            -0.10463,
            51.523696
          ],
          [
            -0.104634,
            51.523677
          ],
          [
            -0.104613,
            51.523661
          ],
          [
            -0.104626,
            51.523647
          ],
          [
            -0.104629,
            51.523632
          ],
          [
            -0.104624,
            51.523617
          ],
          [
            -0.104616,
            51.523593
          ],
          [
            -0.104603,
            51.523586
          ],
          [
            -0.104604,
            51.523574
          ],
          [
            -0.104606,
            51.523541
          ],
          [
            -0.104587,
            51.52343
          ],
          [
            -0.104562,
            51.523367
          ],
          [
            -0.104551,
            51.52335
          ],
          [
            -0.104541,
            51.523343
          ],
          [
            -0.104547,
            51.523334
          ],
          [
            -0.104606,
            51.523316
          ],
          [
            -0.10465,
            51.523302
          ],
          [
            -0.104658,
            51.523299
          ],
          [
            -0.10474,
            51.523269
          ],
          [
            -0.104871,
            51.52322
          ],
          [
            -0.105096,
            51.523136
          ],
          [
            -0.10524,
            51.523099
          ],
          [
            -0.10525,
            51.523096
          ],
          [
            -0.105269,
            51.523091
          ],
          [
            -0.105311,
            51.52308
          ],
          [
            -0.105391,
            51.523043
          ],
          [
            -0.10541,
            51.523034
          ],
          [
            -0.105388,
            51.523012
          ],
          [
            -0.105365,
            51.52299
          ],
          [
            -0.105584,
            51.522904
          ],
          [
            -0.105715,
            51.522853
          ],
          [
            -0.105757,
            51.522835
          ],
          [
            -0.105885,
            51.522788
          ],
          [
            -0.105842,
            51.522746
          ],
          [
            -0.105672,
            51.522578
          ],
          [
            -0.105634,
            51.522498
          ],
          [
            -0.105621,
            51.522459
          ],
          [
            -0.105587,
            51.522384
          ],
          [
            -0.106004,
            51.522328
          ],
          [
            -0.105996,
            51.52231
          ],
          [
            -0.105983,
            51.522262
          ],
          [
            -0.105967,
            51.522208
          ],
          [
            -0.105963,
            51.522197
          ],
          [
            -0.106092,
            51.522184
          ],
          [
            -0.106105,
            51.522177
          ],
          [
            -0.106116,
            51.522171
          ],
          [
            -0.106172,
            51.522168
          ],
          [
            -0.106219,
            51.522167
          ],
          [
            -0.106236,
            51.52217
          ],
          [
            -0.106183,
            51.522066
          ],
          [
            -0.106116,
            51.521966
          ],
          [
            -0.106061,
            51.521884
          ],
          [
            -0.105941,
            51.521716
          ],
          [
            -0.105811,
            51.521578
          ],
          [
            -0.105741,
            51.521519
          ],
          [
            -0.105577,
            51.521375
          ],
          [
            -0.105406,
            51.52126
          ],
          [
            -0.105349,
            51.521227
          ],
          [
            -0.105266,
            51.521158
          ],
          [
            -0.105214,
            51.52112
          ],
          [
            -0.105232,
            51.521113
          ],
          [
            -0.10524,
            51.52111
          ],
          [
            -0.105273,
            51.521095
          ],
          [
            -0.105172,
            51.52097
          ],
          [
            -0.105112,
            51.52094
          ],
          [
            -0.105075,
            51.520922
          ],
          [
            -0.105007,
            51.520832
          ],
          [
            -0.104926,
            51.520726
          ],
          [
            -0.104823,
            51.520589
          ],
          [
            -0.104676,
            51.520396
          ],
          [
            -0.104666,
            51.52037
          ],
          [
            -0.104684,
            51.520364
          ],
          [
            -0.104714,
            51.520355
          ],
          [
            -0.10468,
            51.520312
          ],
          [
            -0.104853,
            51.520258
          ],
          [
            -0.104963,
            51.520268
          ],
          [
            -0.104959,
            51.520286
          ]
        ]
      }
    }
  ]
}
